STARLINK-1749
1 16589C 20070BK  21326.15328252  .00000338  00000-0  22627-4 0  3264
2 16589  53.0544 358.0512 0001506  53.6222 330.4348 15.06391889    17
